NORAD_CAT_ID,OBJECT_NAME,OBJECT_TYPE,EPOCH,MEAN_MOTION,ECCENTRICITY,INCLINATION,RA_OF_ASC_NODE,ARG_OF_PERICENTER,MEAN_ANOMALY,BSTAR,MEAN_MOTION_DOT,MEAN_MOTION_DDOT,TLE_LINE0,TLE_LINE1,TLE_LINE2,SEMIMAJOR_AXIS,PERIOD,APOGEE,PERIGEE,DECAYED
51721.0,STARLINK-3524,PAYLOAD,2023-10-28 13:19:18,15.08834256,0.0001652,53.2171,243.8918,82.631,277.4869,-3.2411e-05,-8.04e-06,0.0,0 STARLINK-3524,1 51721U 22016H   23301.55507265 -.00000804  00000-0 -32411-4 0  9990,2 51721  53.2171 243.8918 0001652  82.6310 277.4869 15.08834256 93126,6917.898,95.438,540.906,538.62,0.0
51721.0,STARLINK-3524,PAYLOAD,2023-10-29 03:37:46,15.08846526,0.000155,53.2162,241.2159,82.9874,277.1294,0.00060125,9.296e-05,0.0,0 STARLINK-3524,1 51721U 22016H   23302.15123273  .00009296  00000-0  60125-3 0  9994,2 51721  53.2162 241.2159 0001550  82.9874 277.1294 15.08846526 94336,6917.86,95.437,540.798,538.653,0.0
51721.0,STARLINK-3524,PAYLOAD,2023-10-29 05:13:09,15.0885714,0.0001625,53.2163,240.918,82.7506,277.367,0.00093262,0.00014593,0.0,0 STARLINK-3524,1 51721U 22016H   23302.21747072  .00014593  00000-0  93262-3 0  9994,2 51721  53.2163 240.9180 0001625  82.7506 277.3670 15.08857140 94345,6917.828,95.436,540.817,538.569,0.0
51721.0,STARLINK-3524,PAYLOAD,2023-10-29 13:10:05,15.0884254,0.0001979,53.2171,239.4324,77.6857,282.4356,0.00049458,7.592e-05,0.0,0 STARLINK-3524,1 51721U 22016H   23302.54867560  .00007592  00000-0  49458-3 0  9994,2 51721  53.2171 239.4324 0001979  77.6857 282.4356 15.08842540 93278,6917.873,95.437,541.107,538.369,0.0
51721.0,STARLINK-3524,PAYLOAD,2023-10-30 19:22:25,15.08844907,0.0001764,53.2164,233.7827,90.5311,269.5883,0.0013387,0.00021085,0.0,0 STARLINK-3524,1 51721U 22016H   23303.80724185  .00021085  00000-0  13387-2 0  9993,2 51721  53.2164 233.7827 0001764  90.5311 269.5883 15.08844907 94581,6917.865,95.437,540.951,538.51,0.0
51721.0,STARLINK-3524,PAYLOAD,2023-10-31 12:51:40,15.08845986,9.74e-05,53.2174,230.512,89.9262,270.1842,0.00073381,0.00011412,0.0,0 STARLINK-3524,1 51721U 22016H   23304.53588029  .00011412  00000-0  73381-3 0  9993,2 51721  53.2174 230.5120 0000974  89.9262 270.1842 15.08845986 94695,6917.862,95.437,540.401,539.053,0.0
51721.0,STARLINK-3524,PAYLOAD,2023-10-31 22:23:58,15.08846528,0.0001526,53.2174,228.7284,84.9469,275.1697,0.00043275,6.607e-05,0.0,0 STARLINK-3524,1 51721U 22016H   23304.93332156  .00006607  00000-0  43275-3 0  9994,2 51721  53.2174 228.7284 0001526  84.9469 275.1697 15.08846528 93632,6917.86,95.437,540.781,538.67,0.0
51721.0,STARLINK-3524,PAYLOAD,2023-11-01 01:34:45,15.08848661,0.000139,53.2173,228.1335,87.2421,272.8731,0.0004792,7.349e-05,0.0,0 STARLINK-3524,1 51721U 22016H   23305.06580054  .00007349  00000-0  47920-3 0  9996,2 51721  53.2173 228.1335 0001390  87.2421 272.8731 15.08848661 94774,6917.854,95.437,540.68,538.757,0.0
51721.0,STARLINK-3524,PAYLOAD,2023-11-01 22:14:45,15.08847829,0.000139,53.2177,224.2681,86.9144,273.2007,0.0002513,3.715e-05,0.0,0 STARLINK-3524,1 51721U 22016H   23305.92691846  .00003715  00000-0  25130-3 0  9995,2 51721  53.2177 224.2681 0001390  86.9144 273.2007 15.08847829 93783,6917.856,95.437,540.683,538.76,0.0
51721.0,STARLINK-3524,PAYLOAD,2023-11-02 04:36:17,15.08858244,0.0001464,53.218,223.0755,96.1355,263.9804,0.00044236,6.763e-05,0.0,0 STARLINK-3524,1 51721U 22016H   23306.19187318  .00006763  00000-0  44236-3 0  9993,2 51721  53.2180 223.0755 0001464  96.1355 263.9804 15.08858244 94948,6917.825,95.436,540.702,538.677,0.0
51721.0,STARLINK-3524,PAYLOAD,2023-11-02 18:54:46,15.08841309,0.0001471,53.2174,220.4021,91.507,268.6091,2.1649e-05,5.7e-07,0.0,0 STARLINK-3524,1 51721U 22016H   23306.78803739  .00000057  00000-0  21649-4 0  9994,2 51721  53.2174 220.4021 0001471  91.5070 268.6091 15.08841309 95034,6917.876,95.437,540.759,538.724,0.0
51721.0,STARLINK-3524,PAYLOAD,2023-11-02 22:05:32,15.08840263,0.0001447,53.2175,219.8075,88.9206,271.1952,-7.3613e-06,-4.05e-06,0.0,0 STARLINK-3524,1 51721U 22016H   23306.92051751 -.00000405  00000-0 -73613-5 0  9997,2 51721  53.2175 219.8075 0001447  88.9206 271.1952 15.08840263 93930,6917.88,95.438,540.746,538.744,0.0
51721.0,STARLINK-3524,PAYLOAD,2023-11-03 10:48:37,15.08839666,0.0001374,53.2161,217.425,77.3638,282.7508,3.1395e-05,2.12e-06,0.0,0 STARLINK-3524,1 51721U 22016H   23307.45043599  .00000212  00000-0  31395-4 0  9991,2 51721  53.2161 217.4250 0001374  77.3638 282.7508 15.08839666 94014,6917.881,95.438,540.697,538.796,0.0
51721.0,STARLINK-3524,PAYLOAD,2023-11-03 21:56:19,15.08840685,0.0001372,53.2168,215.3451,90.1986,269.9163,5.7253e-06,-1.97e-06,0.0,0 STARLINK-3524,1 51721U 22016H   23307.91411720 -.00000197  00000-0  57253-5 0  9992,2 51721  53.2168 215.3451 0001372  90.1986 269.9163 15.08840685 94082,6917.878,95.438,540.692,538.794,0.0
51721.0,STARLINK-3524,PAYLOAD,2023-11-04 02:42:28,15.08851499,0.0001486,53.2169,214.4548,96.9962,263.1199,0.00041017,6.248e-05,0.0,0 STARLINK-3524,1 51721U 22016H   23308.11283450  .00006248  00000-0  41017-3 0  9993,2 51721  53.2169 214.4548 0001486  96.9962 263.1199 15.08851499 95232,6917.845,95.437,540.738,538.682,0.0
51721.0,STARLINK-3524,PAYLOAD,2023-11-04 10:39:24,15.08844709,0.0001329,53.2163,212.9683,90.3023,269.8121,0.00045002,6.882e-05,0.0,0 STARLINK-3524,1 51721U 22016H   23308.44403782  .00006882  00000-0  45002-3 0  9993,2 51721  53.2163 212.9683 0001329  90.3023 269.8121 15.08844709 95280,6917.866,95.437,540.65,538.812,0.0
51721.0,STARLINK-3524,PAYLOAD,2023-11-04 21:47:07,15.08832274,0.0001174,53.2166,210.8871,96.3679,263.7447,9.4572e-06,-1.37e-06,0.0,0 STARLINK-3524,1 51721U 22016H   23308.90772214 -.00000137  00000-0  94572-5 0  9999,2 51721  53.2166 210.8871 0001174  96.3679 263.7447 15.08832274 94232,6917.904,95.438,540.581,538.957,0.0
51721.0,STARLINK-3524,PAYLOAD,2023-11-05 10:30:12,15.0885226,0.0001504,53.2162,208.5074,96.3331,263.7833,0.00085873,0.0001341,0.0,0 STARLINK-3524,1 51721U 22016H   23309.43763982  .00013410  00000-0  85873-3 0  9999,2 51721  53.2162 208.5074 0001504  96.3331 263.7833 15.08852260 95438,6917.843,95.437,540.748,538.667,0.0
51721.0,STARLINK-3524,PAYLOAD,2023-11-05 21:37:52,15.0889424,0.0001361,53.2159,206.4248,100.7803,259.3343,0.0019346,0.00030681,0.0,0 STARLINK-3524,1 51721U 22016H   23309.90130685  .00030681  00000-0  19346-2 0  9999,2 51721  53.2159 206.4248 0001361 100.7803 259.3343 15.08894240 94383,6917.715,95.434,540.521,538.638,0.0
51721.0,STARLINK-3524,PAYLOAD,2023-11-06 02:24:01,15.08935541,0.0001616,53.2147,205.5326,93.7894,266.3283,0.0039501,0.00063309,0.0,0 STARLINK-3524,1 51721U 22016H   23310.10001684  .00063309  00000-0  39501-2 0  9997,2 51721  53.2147 205.5326 0001616  93.7894 266.3283 15.08935541 95530,6917.588,95.432,540.571,538.335,0.0
51721.0,STARLINK-3524,PAYLOAD,2023-11-06 10:20:57,15.08887037,0.0003356,53.2158,204.0468,75.2858,284.8506,0.0011136,0.00017503,0.0,0 STARLINK-3524,1 51721U 22016H   23310.43122186  .00017503  00000-0  11136-2 0  9993,2 51721  53.2158 204.0468 0003356  75.2858 284.8506 15.08887037 95585,6917.737,95.435,541.923,537.28,0.0
51721.0,STARLINK-3524,PAYLOAD,2023-11-06 23:04:03,15.08808677,0.000187,53.2168,201.6683,81.1849,278.9355,4.3966e-05,4.11e-06,0.0,0 STARLINK-3524,1 51721U 22016H   23310.96114925  .00000411  00000-0  43966-4 0  9991,2 51721  53.2168 201.6683 0001870  81.1849 278.9355 15.08808677 94547,6917.976,95.44,541.135,538.547,0.0
51721.0,STARLINK-3524,PAYLOAD,2023-11-07 00:39:26,15.08775568,0.0001424,53.2157,201.3701,84.7308,275.3846,-0.0014948,-0.00023957,0.0,0 STARLINK-3524,1 51721U 22016H   23311.02739388 -.00023957  00000-0 -14948-2 0  9993,2 51721  53.2157 201.3701 0001424  84.7308 275.3846 15.08775568 95670,6918.077,95.442,540.927,538.957,0.0
51721.0,STARLINK-3524,PAYLOAD,2023-11-07 10:11:47,15.08777411,0.0001317,53.2162,199.5871,88.6075,271.5068,0.0017297,0.000273,0.0,0 STARLINK-3524,1 51721U 22016H   23311.42485522  .00027300  00000-0  17297-2 0  9999,2 51721  53.2162 199.5871 0001317  88.6075 271.5068 15.08777411 95737,6918.072,95.442,540.848,539.026,0.0
51721.0,STARLINK-3524,PAYLOAD,2023-11-07 22:54:54,15.08784489,0.0001525,53.2168,197.2077,92.1035,268.0132,0.00088202,0.00013756,0.0,0 STARLINK-3524,1 51721U 22016H   23311.95479656  .00013756  00000-0  88202-3 0  9993,2 51721  53.2168 197.2077 0001525  92.1035 268.0132 15.08784489 95818,6918.05,95.441,540.97,538.86,0.0
51721.0,STARLINK-3524,PAYLOAD,2023-11-08 19:34:53,15.08871033,0.0001165,53.2172,193.3467,44.1008,316.0077,0.0017054,0.00026981,0.0,0 STARLINK-3524,1 51721U 22016H   23312.81590040  .00026981  00000-0  17054-2 0  9990,2 51721  53.2172 193.3467 0001165  44.1008 316.0077 15.08871033 95948,6917.786,95.436,540.456,538.845,0.0
51721.0,STARLINK-3524,PAYLOAD,2023-11-08 22:45:38,15.08949995,0.0001921,53.2171,192.7518,107.208,252.9122,0.0052562,0.00084625,0.0,0 STARLINK-3524,1 51721U 22016H   23312.94836381  .00084625  00000-0  52562-2 0  9997,2 51721  53.2171 192.7518 0001921 107.2080 252.9122 15.08949995 94848,6917.544,95.431,540.738,538.08,0.0
51721.0,STARLINK-3524,PAYLOAD,2023-11-09 01:56:26,15.08831134,9.18e-05,53.2169,192.1578,71.7995,288.3097,-0.0003399,-5.692e-05,0.0,0 STARLINK-3524,1 51721U 22016H   23313.08086035 -.00005692  00000-0 -33990-3 0  9990,2 51721  53.2169 192.1578 0000918  71.7995 288.3097 15.08831134 95985,6917.907,95.438,540.408,539.137,0.0
51721.0,STARLINK-3524,PAYLOAD,2023-11-09 19:25:39,15.08891313,0.0001039,53.2173,188.8885,50.2213,309.8871,0.0026845,0.00042755,0.0,0 STARLINK-3524,1 51721U 22016H   23313.80948965  .00042755  00000-0  26845-2 0  9998,2 51721  53.2173 188.8885 0001039  50.2213 309.8871 15.08891313 96090,6917.724,95.434,540.307,538.87,0.0
51721.0,STARLINK-3524,PAYLOAD,2023-11-09 22:36:26,15.08860191,0.0001401,53.217,188.2881,76.9834,283.1314,0.00028613,4.271e-05,0.0,0 STARLINK-3524,1 51721U 22016H   23313.94197074  .00004271  00000-0  28613-3 0  9997,2 51721  53.2170 188.2881 0001401  76.9834 283.1314 15.08860191 94997,6917.819,95.436,540.653,538.714,0.0
